NORAD_CAT_ID,OBJECT_NAME,OBJECT_TYPE,EPOCH,MEAN_MOTION,ECCENTRICITY,INCLINATION,RA_OF_ASC_NODE,ARG_OF_PERICENTER,MEAN_ANOMALY,BSTAR,MEAN_MOTION_DOT,MEAN_MOTION_DDOT,TLE_LINE0,TLE_LINE1,TLE_LINE2,SEMIMAJOR_AXIS,PERIOD,APOGEE,PERIGEE,DECAYED
53253.0,STARLINK-4133,PAYLOAD,2023-11-17 11:05:57,15.08840835,0.0001559,53.2192,19.5159,80.4915,279.6254,4.3137e-05,3.99e-06,0.0,0 STARLINK-4133,1 53253U 22086M   23321.46247571  .00000399  00000-0  43137-4 0  9996,2 53253  53.2192  19.5159 0001559  80.4915 279.6254 15.08840835 73589,6917.878,95.438,540.821,538.664,0.0
53253.0,STARLINK-4133,PAYLOAD,2023-11-17 20:38:16,15.08837167,0.0001438,53.219,17.7322,98.1109,262.0046,2.3056e-05,7.9e-07,0.0,0 STARLINK-4133,1 53253U 22086M   23321.85991750  .00000079  00000-0  23056-4 0  9997,2 53253  53.2190  17.7322 0001438  98.1109 262.0046 15.08837167 73822,6917.889,95.438,540.749,538.759,0.0
53253.0,STARLINK-4133,PAYLOAD,2023-11-18 12:32:08,15.08831027,0.0001507,53.2196,14.7586,102.2521,257.864,1.8768e-05,1.1e-07,0.0,0 STARLINK-4133,1 53253U 22086M   23322.52232506  .00000011  00000-0  18768-4 0  9999,2 53253  53.2196  14.7586 0001507 102.2521 257.8640 15.08831027 73741,6917.908,95.438,540.815,538.73,0.0
53253.0,STARLINK-4133,PAYLOAD,2023-11-18 20:29:04,15.08830125,0.0001568,53.2196,13.272,98.871,261.246,0.00015201,2.131e-05,0.0,0 STARLINK-4133,1 53253U 22086M   23322.85352358  .00002131  00000-0  15201-3 0  9996,2 53253  53.2196  13.2720 0001568  98.8710 261.2460 15.08830125 73974,6917.911,95.438,540.86,538.691,0.0
53253.0,STARLINK-4133,PAYLOAD,2023-11-19 10:47:31,15.08849622,0.0001472,53.2193,10.5956,89.3115,270.8046,0.00015618,2.199e-05,0.0,0 STARLINK-4133,1 53253U 22086M   23323.44967149  .00002199  00000-0  15618-3 0  9998,2 53253  53.2193  10.5956 0001472  89.3115 270.8046 15.08849622 73888,6917.851,95.437,540.734,538.698,0.0
53253.0,STARLINK-4133,PAYLOAD,2023-11-19 12:22:54,15.08852149,0.0001483,53.2192,10.2981,89.416,270.7002,0.00017683,2.528e-05,0.0,0 STARLINK-4133,1 53253U 22086M   23323.51590913  .00002528  00000-0  17683-3 0  9997,2 53253  53.2192  10.2981 0001483  89.4160 270.7002 15.08852149 74076,6917.843,95.437,540.734,538.682,0.0
53253.0,STARLINK-4133,PAYLOAD,2023-11-19 20:19:50,15.08841204,0.0001328,53.2192,8.8114,94.0783,266.0361,9.0731e-05,1.156e-05,0.0,0 STARLINK-4133,1 53253U 22086M   23323.84711662  .00001156  00000-0  90731-4 0  9991,2 53253  53.2192   8.8114 0001328  94.0783 266.0361 15.08841204 74120,6917.877,95.437,540.66,538.823,0.0
53253.0,STARLINK-4133,PAYLOAD,2023-11-20 12:13:42,15.08844672,0.0001487,53.2185,5.8367,94.3205,265.7957,0.0001467,2.048e-05,0.0,0 STARLINK-4133,1 53253U 22086M   23324.50951562  .00002048  00000-0  14670-3 0  9998,2 53253  53.2185   5.8367 0001487  94.3205 265.7957 15.08844672 74227,6917.866,95.437,540.76,538.702,0.0
53253.0,STARLINK-4133,PAYLOAD,2023-11-21 02:32:10,15.08842026,0.0001421,53.2175,3.1606,91.5195,268.596,1.2093e-05,-9.5e-07,0.0,0 STARLINK-4133,1 53253U 22086M   23325.10567932 -.00000095  00000-0  12093-4 0  9998,2 53253  53.2175   3.1606 0001421  91.5195 268.5960 15.08842026 74134,6917.874,95.437,540.722,538.756,0.0
53253.0,STARLINK-4133,PAYLOAD,2023-11-21 10:29:05,15.08849162,0.0001521,53.218,1.673,94.18,265.9367,4.2263e-06,-2.21e-06,0.0,0 STARLINK-4133,1 53253U 22086M   23325.43687480 -.00000221  00000-0  42263-5 0  9999,2 53253  53.2180   1.6730 0001521  94.1800 265.9367 15.08849162 74369,6917.852,95.437,540.77,538.665,0.0
53253.0,STARLINK-4133,PAYLOAD,2023-11-22 08:44:29,15.08850365,0.0001635,53.2181,357.5102,96.9499,263.168,0.0001754,2.505e-05,0.0,0 STARLINK-4133,1 53253U 22086M   23326.36423187  .00002505  00000-0  17540-3 0  9998,2 53253  53.2181 357.5102 0001635  96.9499 263.1680 15.08850365 74507,6917.849,95.437,540.845,538.583,0.0
53253.0,STARLINK-4133,PAYLOAD,2023-11-23 11:46:03,15.08841003,0.0001553,53.2179,352.4539,90.4455,269.6715,4.9716e-05,5.03e-06,0.0,0 STARLINK-4133,1 53253U 22086M   23327.49031811  .00000503  00000-0  49716-4 0  9999,2 53253  53.2179 352.4539 0001553  90.4455 269.6715 15.08841003 74499,6917.877,95.437,540.817,538.668,0.0
53253.0,STARLINK-4133,PAYLOAD,2023-11-24 02:04:32,15.08823486,0.0001802,53.2184,349.7751,105.8187,254.3004,0.00020272,2.938e-05,0.0,0 STARLINK-4133,1 53253U 22086M   23328.08648753  .00002938  00000-0  20272-3 0  9993,2 53253  53.2184 349.7751 0001802 105.8187 254.3004 15.08823486 74587,6917.931,95.439,541.042,538.549,0.0
53253.0,STARLINK-4133,PAYLOAD,2023-11-24 10:01:28,15.0883525,0.000183,53.2192,348.2882,113.0517,247.0668,-1.1021e-05,-4.63e-06,0.0,0 STARLINK-4133,1 53253U 22086M   23328.41768569 -.00000463  00000-0 -11021-4 0  9994,2 53253  53.2192 348.2882 0001830 113.0517 247.0668 15.08835250 74637,6917.895,95.438,541.026,538.494,0.0
53253.0,STARLINK-4133,PAYLOAD,2023-11-25 06:41:28,15.08841709,0.0001726,53.2191,344.4263,89.3901,270.7289,0.00013008,1.783e-05,0.0,0 STARLINK-4133,1 53253U 22086M   23329.27880402  .00001783  00000-0  13008-3 0  9990,2 53253  53.2191 344.4263 0001726  89.3901 270.7289 15.08841709 74945,6917.875,95.437,540.934,538.546,0.0
53253.0,STARLINK-4133,PAYLOAD,2023-11-26 09:43:00,15.08865895,0.0001658,53.2175,339.3702,92.1237,267.9945,0.00047653,7.309e-05,0.0,0 STARLINK-4133,1 53253U 22086M   23330.40487215  .00007309  00000-0  47653-3 0  9995,2 53253  53.2175 339.3702 0001658  92.1237 267.9945 15.08865895 74934,6917.801,95.436,540.813,538.519,0.0
53253.0,STARLINK-4133,PAYLOAD,2023-11-26 22:26:07,15.08827169,0.000168,53.2178,336.9944,106.9795,253.1381,-0.00037188,-6.2e-05,0.0,0 STARLINK-4133,1 53253U 22086M   23330.93480571 -.00006200  00000-0 -37188-3 0  9994,2 53253  53.2178 336.9944 0001680 106.9795 253.1381 15.08827169 75019,6917.92,95.438,540.947,538.622,0.0
53253.0,STARLINK-4133,PAYLOAD,2023-11-27 09:33:50,15.08810489,0.0001623,53.2175,334.9117,88.8189,271.2989,-0.00047324,-7.806e-05,0.0,0 STARLINK-4133,1 53253U 22086M   23331.39850029 -.00007806  00000-0 -47324-3 0  9990,2 53253  53.2175 334.9117 0001623  88.8189 271.2989 15.08810489 75087,6917.971,95.439,540.958,538.713,0.0
53253.0,STARLINK-4133,PAYLOAD,2023-11-27 22:16:55,15.08825089,0.0001943,53.2167,332.5403,64.9782,295.1412,-2.5165e-05,-6.88e-06,0.0,0 STARLINK-4133,1 53253U 22086M   23331.92842453 -.00000688  00000-0 -25165-4 0  9992,2 53253  53.2167 332.5403 0001943  64.9782 295.1412 15.08825089 75166,6917.926,95.438,541.135,538.447,0.0
53253.0,STARLINK-4133,PAYLOAD,2023-11-28 09:24:37,15.08860422,0.0001762,53.2172,330.4517,79.2757,280.8434,0.0016167,0.0002555,0.0,0 STARLINK-4133,1 53253U 22086M   23332.39210229  .00025550  00000-0  16167-2 0  9997,2 53253  53.2172 330.4517 0001762  79.2757 280.8434 15.08860422 75238,6917.818,95.436,540.902,538.464,0.0
53253.0,STARLINK-4133,PAYLOAD,2023-11-29 04:29:14,15.08869919,0.0002359,53.2175,326.8792,119.1612,240.9616,0.0007987,0.00012457,0.0,0 STARLINK-4133,1 53253U 22086M   23333.18697121  .00012457  00000-0  79870-3 0  9998,2 53253  53.2175 326.8792 0002359 119.1612 240.9616 15.08869919 75354,6917.789,95.436,541.286,538.022,0.0
53253.0,STARLINK-4133,PAYLOAD,2023-11-29 09:15:23,15.08889406,0.0002019,53.2173,325.9929,88.3647,271.7576,0.0020105,0.00031898,0.0,0 STARLINK-4133,1 53253U 22086M   23333.38568916  .00031898  00000-0  20105-2 0  9995,2 53253  53.2173 325.9929 0002019  88.3647 271.7576 15.08889406 75385,6917.729,95.434,540.991,538.198,0.0
53253.0,STARLINK-4133,PAYLOAD,2023-11-30 02:44:38,15.08856999,0.0002171,53.2172,322.7193,104.0504,256.0729,0.002302,0.00036556,0.0,0 STARLINK-4133,1 53253U 22086M   23334.11433298  .00036556  00000-0  23020-2 0  9996,2 53253  53.2172 322.7193 0002171 104.0504 256.0729 15.08856999 75498,6917.828,95.436,541.195,538.192,0.0
53253.0,STARLINK-4133,PAYLOAD,2023-11-30 09:06:10,15.08850797,0.0001893,53.2172,321.5285,93.1154,267.0055,0.0012709,0.00020002,0.0,0 STARLINK-4133,1 53253U 22086M   23334.37929236  .00020002  00000-0  12709-2 0  9997,2 53253  53.2172 321.5285 0001893  93.1154 267.0055 15.08850797 75535,6917.847,95.437,541.022,538.403,0.0
53253.0,STARLINK-4133,PAYLOAD,2023-12-01 04:10:48,15.08845742,0.0002235,53.2181,317.9533,110.2323,249.8909,0.0012562,0.00019764,0.0,0 STARLINK-4133,1 53253U 22086M   23335.17417439  .00019764  00000-0  12562-2 0  9993,2 53253  53.2181 317.9533 0002235 110.2323 249.8909 15.08845742 75653,6917.863,95.437,541.274,538.182,0.0
53253.0,STARLINK-4133,PAYLOAD,2023-12-01 05:46:11,15.08845938,0.0002008,53.2182,317.6559,94.1357,265.9865,0.0012256,0.00019274,0.0,0 STARLINK-4133,1 53253U 22086M   23335.24041576  .00019274  00000-0  12256-2 0  9992,2 53253  53.2182 317.6559 0002008  94.1357 265.9865 15.08845938 75842,6917.862,95.437,541.116,538.338,0.0
53253.0,STARLINK-4133,PAYLOAD,2023-12-02 05:36:57,15.08901052,0.0002159,53.2189,313.202,103.4681,256.6552,0.0026872,0.00042811,0.0,0 STARLINK-4133,1 53253U 22086M   23336.23400155  .00042811  00000-0  26872-2 0  9996,2 53253  53.2189 313.2020 0002159 103.4681 256.6552 15.08901052 75812,6917.694,95.434,541.052,538.065,0.0
53253.0,STARLINK-4133,PAYLOAD,2023-12-03 03:52:22,15.08823236,0.0001936,53.2191,309.0414,98.7373,261.3839,-0.00026936,-4.571e-05,0.0,0 STARLINK-4133,1 53253U 22086M   23337.16137511 -.00004571  00000-0 -26936-3 0  9997,2 53253  53.2191 309.0414 0001936  98.7373 261.3839 15.08823236 75954,6917.932,95.439,541.136,538.457,0.0
53253.0,STARLINK-4133,PAYLOAD,2023-12-03 05:27:46,15.08814479,0.0001927,53.2186,308.7469,92.8246,267.2967,-0.00060024,-9.822e-05,0.0,0 STARLINK-4133,1 53253U 22086M   23337.22761749 -.00009822  00000-0 -60024-3 0  9990,2 53253  53.2186 308.7469 0001927  92.8246 267.2967 15.08814479 76146,6917.958,95.439,541.156,538.49,0.0
53253.0,STARLINK-4133,PAYLOAD,2023-12-04 06:53:57,15.08845493,0.0001893,53.2173,303.9865,87.9164,272.2045,0.0012826,0.00020187,0.0,0 STARLINK-4133,1 53253U 22086M   23338.28746959  .00020187  00000-0  12826-2 0  9994,2 53253  53.2173 303.9865 0001893  87.9164 272.2045 15.08845493 76126,6917.864,95.437,541.038,538.419,0.0
